[
    {
        "Altitude(m)": 604234.6024618159,
        "Argument of Periapsis(deg)": 0.0,
        "Eccentricity": 0.0,
        "Inclination(deg)": 60.0,
        "Latitude(deg)": 14.117197168842594,
        "Longitude(deg)": -158.2726450195364,
        "Mean Anomaly(deg)": 163.6364,
        "RAAN(deg)": 130.0,
        "Satellite Name": "Test1 582",
        "Satellite Number": 582,
        "Semi-Major Axis(m)": 6980739.136638005,
        "Time(s)": 0
    },
    {
        "Altitude(m)": 604223.43117317,
        "Argument of Periapsis(deg)": 0.00010418945913296404,
        "Eccentricity": 0.0,
        "Inclination(deg)": 60.0,
        "Latitude(deg)": 13.58233297904574,
        "Longitude(deg)": -157.9857369785278,
        "Mean Anomaly(deg)": 164.25650614546183,
        "RAAN(deg)": 129.99957995086024,
        "Satellite Name": "Test1 582",
        "Satellite Number": 582,
        "Semi-Major Axis(m)": 6980739.136638005,
        "Time(s)": 10
    }
]